STARLINK-32644          
1 62151U 24224N   26182.83032411  .00029000  00000+0  10591-2 0  9998
2 62151  42.9968 233.7278 0001111 275.9905  84.0820 15.27584450 89930
STARLINK-32623          
1 62152U 24224P   26182.86695377  .00018439  00000+0  67771-3 0  9995
2 62152  43.0007 236.6082 0001566 273.9697  86.0975 15.27589307 89841
STARLINK-32639          
1 62153U 24224Q   26182.82775427  .00021935  00000+0  80419-3 0  9996
2 62153  42.9974 233.7085 0001199 275.3415  84.7300 15.27582853 89778
STARLINK-32625          
1 62154U 24224R   26182.63931018  .00011399  00000+0  42324-3 0  9992
2 62154  43.0091 234.8784 0003827 292.2503  67.7943 15.27568380 89790
STARLINK-32635          
1 62155U 24224S   26182.86274480  .00016961  00000+0  62374-3 0  9998
2 62155  42.9982 240.8941 0003413 270.9791  89.0669 15.27615276 89691
STARLINK-32532          
1 62156U 24224T   26182.86743688  .00011178  00000+0  41500-3 0  9993
2 62156  43.0008 233.1524 0001693 269.9521  90.1137 15.27589630 89789
STARLINK-32503          
1 62157U 24224U   26182.85120521  .00019905  00000+0  73034-3 0  9991
2 62157  42.9973 240.8059 0000701   0.8680 359.2172 15.27604669 89423
STARLINK-32508          
1 62158U 24224V   26182.61746850  .00019189  00000+0  70454-3 0  9992
2 62158  42.9945 234.7163 0001786  19.8917 340.2004 15.27602705 89904
STARLINK-32524          
1 62159U 24224W   26182.87851886  .00026198  00000+0  95789-3 0  9993
2 62159  43.0033 236.6938 0001834 263.1972  96.8671 15.27588619 89748
STARLINK-32484          
1 62160U 24224X   26182.83419140  .00024780  00000+0  90612-3 0  9999
2 62160  42.9975 233.7546 0001820 280.3904  79.6743 15.27611112 89932
STARLINK-32497          
1 62161U 24224Y   26182.87081100  .00013419  00000+0  49611-3 0  9995
2 62161  42.9951 236.6387 0000875 299.5474  60.5290 15.27589963 89894
STARLINK-32526          
1 62162U 24224Z   26182.87466200  .00016735  00000+0  61610-3 0  9991
2 62162  43.0019 236.6664 0002092 266.3049  93.7563 15.27588101 89897
STARLINK-32523          
1 62165U 24225C   26182.85341220  .00005101  00000+0  43492-3 0  9990
2 62165  69.9996 236.6844 0004074 267.7116  92.3577 14.98332162 86970
STARLINK-32551          
1 62166U 24225D   26182.89510757  .00006189  00000+0  52589-3 0  9992
2 62166  69.9992 236.4362 0003947 268.9697  91.1009 14.98337614 86980
STARLINK-32506          
1 62167U 24225E   26182.87008893  .00002305  00000+0  20091-3 0  9993
2 62167  69.9988 236.7442 0003984 266.8564  93.2140 14.98335766 86973
STARLINK-32562          
1 62168U 24225F   26182.50707171  .00002964  00000+0  25601-3 0  9992
2 62168  69.9997 237.4832 0003650 269.2525  90.8216 14.98341476 86926
STARLINK-32558          
1 62169U 24225G   26182.84921276  .00000811  00000+0  75768-4 0  9993
2 62169  70.0008 236.6696 0003732 271.5259  88.5472 14.98337780 86979
STARLINK-32538          
1 62170U 24225H   26182.86175940  .00001818  00000+0  16011-3 0  9999
2 62170  70.0000 236.7166 0003809 267.4195  92.6528 14.98325913 86977
STARLINK-32257          
1 62171U 24225J   26182.88260231  .00003371  00000+0  29016-3 0  9995
2 62171  69.9996 236.3901 0003899 269.8358  90.2354 14.98332460 86985
STARLINK-32407          
1 62172U 24225K   26182.49872404  .00004637  00000+0  39608-3 0  9998
2 62172  69.9999 237.4527 0003860 266.3200  93.7518 14.98340005 86929
STARLINK-32575          
1 62173U 24225L   26182.47548562  .00002068  00000+0  18101-3 0  9993
2 62173  69.9993 227.3684 0004750 264.3156  95.7461 14.98332194 87170
STARLINK-32552          
1 62174U 24225M   26182.88677178  .00005054  00000+0  43084-3 0  9991
2 62174  69.9993 236.4046 0003835 267.4547  92.6173 14.98347466 86987
STARLINK-32534          
1 62175U 24225N   26182.86591548  .00002137  00000+0  18682-3 0  9991
2 62175  69.9995 236.7299 0003564 267.6989  92.3762 14.98335602 86973
STARLINK-32516          
1 62176U 24225P   26182.85758637  .00005727  00000+0  48727-3 0  9996
2 62176  69.9997 236.7009 0003773 266.6632  93.4095 14.98338558 86975
STARLINK-32542          
1 62177U 24225Q   26182.51124530  .00004411  00000+0  37717-3 0  9995
2 62177  70.0000 237.4963 0004127 265.8297  94.2390 14.98338945 86925
STARLINK-32600          
1 62178U 24225R   26182.85937237  .00003092  00000+0  26672-3 0  9991
2 62178  69.9995 226.6995 0004006 268.2132  91.8568 14.98336951 87221
STARLINK-32584          
1 62179U 24225S   26182.43613045  .00004407  00000+0  37682-3 0  9998
2 62179  69.9997 237.5733 0003714 268.2740  91.7994 14.98341296 86910
STARLINK-32587          
1 62180U 24225T   26182.49036795  .00003434  00000+0  29534-3 0  9993
2 62180  70.0002 237.3409 0004076 267.3941  92.6752 14.98337500 86921
STARLINK-32602          
1 62181U 24225U   26182.84267633  .00001975  00000+0  17321-3 0  9999
2 62181  70.0000 226.6446 0003330 268.4652  91.6125 14.98335884 87225
STARLINK-32565          
1 62182U 24225V   26182.87423732  .00003926  00000+0  33650-3 0  9998
2 62182  69.9998 236.3624 0003387 263.7992  96.2782 14.98346023 86981
