OBJECT_NAME,OBJECT_ID,EPOCH,MEAN_MOTION,ECCENTRICITY,INCLINATION,RA_OF_ASC_NODE,ARG_OF_PERICENTER,MEAN_ANOMALY,EPHEMERIS_TYPE,CLASSIFICATION_TYPE,NORAD_CAT_ID,ELEMENT_SET_NO,REV_AT_EPOCH,BSTAR,MEAN_MOTION_DOT,MEAN_MOTION_DDOT
STARLINK-32644,2024-224N,2026-07-01T19:55:40.003104,15.27584450,.00011118,42.9968,233.7278,275.9905,84.0820,0,U,62151,999,8993,.10590848E-2,.29E-3,0
STARLINK-32623,2024-224P,2026-07-01T20:48:24.805728,15.27589307,.00015661,43.0007,236.6082,273.9697,86.0975,0,U,62152,999,8984,.67771183E-3,.18439E-3,0
STARLINK-32639,2024-224Q,2026-07-01T19:51:57.968928,15.27582853,.00011996,42.9974,233.7085,275.3415,84.7300,0,U,62153,999,8977,.80418704E-3,.21935E-3,0
STARLINK-32625,2024-224R,2026-07-01T15:20:36.399552,15.27568380,.00038278,43.0091,234.8784,292.2503,67.7943,0,U,62154,999,8979,.42324249E-3,.11399E-3,0
STARLINK-32635,2024-224S,2026-07-01T20:42:21.150720,15.27615276,.00034131,42.9982,240.8941,270.9791,89.0669,0,U,62155,999,8969,.62373902E-3,.16961E-3,0
STARLINK-32532,2024-224T,2026-07-01T20:49:06.546432,15.27589630,.00016932,43.0008,233.1524,269.9521,90.1137,0,U,62156,999,8978,.41499585E-3,.11178E-3,0
STARLINK-32503,2024-224U,2026-07-01T20:25:44.130144,15.27604669,.00007017,42.9973,240.8059,0.8680,359.2172,0,U,62157,999,8942,.73034154E-3,.19905E-3,0
STARLINK-32508,2024-224V,2026-07-01T14:49:09.278400,15.27602705,.00017866,42.9945,234.7163,19.8917,340.2004,0,U,62158,999,8990,.70454164E-3,.19189E-3,0
STARLINK-32524,2024-224W,2026-07-01T21:05:04.029504,15.27588619,.00018345,43.0033,236.6938,263.1972,96.8671,0,U,62159,999,8974,.95789298E-3,.26198E-3,0
STARLINK-32484,2024-224X,2026-07-01T20:01:14.136960,15.27611112,.00018209,42.9975,233.7546,280.3904,79.6743,0,U,62160,999,8993,.90611862E-3,.2478E-3,0
STARLINK-32497,2024-224Y,2026-07-01T20:53:58.070400,15.27589963,.00008753,42.9951,236.6387,299.5474,60.5290,0,U,62161,999,8989,.49610888E-3,.13419E-3,0
STARLINK-32526,2024-224Z,2026-07-01T20:59:30.796800,15.27588101,.00020921,43.0019,236.6664,266.3049,93.7563,0,U,62162,999,8989,.61609905E-3,.16735E-3,0
STARLINK-32523,2024-225C,2026-07-01T20:28:54.814080,14.98332162,.00040743,69.9996,236.6844,267.7116,92.3577,0,U,62165,999,8697,.43492263E-3,.5101E-4,0
STARLINK-32551,2024-225D,2026-07-01T21:28:57.294048,14.98337614,.00039478,69.9992,236.4362,268.9697,91.1009,0,U,62166,999,8698,.52588615E-3,.6189E-4,0
STARLINK-32506,2024-225E,2026-07-01T20:52:55.683552,14.98335766,.00039849,69.9988,236.7442,266.8564,93.2140,0,U,62167,999,8697,.20091E-3,.2305E-4,0
STARLINK-32562,2024-225F,2026-07-01T12:10:10.995744,14.98341476,.00036501,69.9997,237.4832,269.2525,90.8216,0,U,62168,999,8692,.256006E-3,.2964E-4,0
STARLINK-32558,2024-225G,2026-07-01T20:22:51.982464,14.98337780,.00037322,70.0008,236.6696,271.5259,88.5472,0,U,62169,999,8697,.75768465E-4,.811E-5,0
STARLINK-32538,2024-225H,2026-07-01T20:40:56.012160,14.98325913,.00038097,70.0000,236.7166,267.4195,92.6528,0,U,62170,999,8697,.16011228E-3,.1818E-4,0
STARLINK-32257,2024-225J,2026-07-01T21:10:56.839584,14.98332460,.0003899,69.9996,236.3901,269.8358,90.2354,0,U,62171,999,8698,.29015812E-3,.3371E-4,0
STARLINK-32407,2024-225K,2026-07-01T11:58:09.757056,14.98340005,.00038602,69.9999,237.4527,266.3200,93.7518,0,U,62172,999,8692,.39608278E-3,.4637E-4,0
STARLINK-32575,2024-225L,2026-07-01T11:24:41.957568,14.98332194,.00047507,69.9993,227.3684,264.3156,95.7461,0,U,62173,999,8717,.18101048E-3,.2068E-4,0
STARLINK-32552,2024-225M,2026-07-01T21:16:57.081792,14.98347466,.0003835,69.9993,236.4046,267.4547,92.6173,0,U,62174,999,8698,.43084281E-3,.5054E-4,0
STARLINK-32534,2024-225N,2026-07-01T20:46:55.097472,14.98335602,.00035649,69.9995,236.7299,267.6989,92.3762,0,U,62175,999,8697,.18682142E-3,.2137E-4,0
STARLINK-32516,2024-225P,2026-07-01T20:34:55.462368,14.98338558,.00037732,69.9997,236.7009,266.6632,93.4095,0,U,62176,999,8697,.4872698E-3,.5727E-4,0
STARLINK-32542,2024-225Q,2026-07-01T12:16:11.593920,14.98338945,.0004127,70.0000,237.4963,265.8297,94.2390,0,U,62177,999,8692,.37717079E-3,.4411E-4,0
STARLINK-32600,2024-225R,2026-07-01T20:37:29.772768,14.98336951,.00040061,69.9995,226.6995,268.2132,91.8568,0,U,62178,999,8722,.26672265E-3,.3092E-4,0
STARLINK-32584,2024-225S,2026-07-01T10:28:01.670880,14.98341296,.00037147,69.9997,237.5733,268.2740,91.7994,0,U,62179,999,8691,.37682361E-3,.4407E-4,0
STARLINK-32587,2024-225T,2026-07-01T11:46:07.790880,14.98337500,.00040761,70.0002,237.3409,267.3941,92.6752,0,U,62180,999,8692,.29534373E-3,.3434E-4,0
STARLINK-32602,2024-225U,2026-07-01T20:13:27.234912,14.98335884,.00033303,70.0000,226.6446,268.4652,91.6125,0,U,62181,999,8722,.17320543E-3,.1975E-4,0
STARLINK-32565,2024-225V,2026-07-01T20:58:54.104448,14.98346023,.00033874,69.9998,236.3624,263.7992,96.2782,0,U,62182,999,8698,.33650465E-3,.3926E-4,0
